[Satellite]
VERSION=1.1
NAME=PROGRESS-MS 06
NICKNAME=PROGRESS-MS 06
TLE1=1 42756U 17033A   17183.54984348  .00001205  00000-0  25484-4 0  9998
TLE2=2 42756  51.6430 321.7524 0004913 352.0631 101.5772 15.54107724  2838
